ONEWEB-0201             
1 48241U 21031AH  22245.38543977 -.00000129  00000+0 -38357-3 0  9999
2 48241  87.9075 204.7681 0001937  80.6418 279.4930 13.14502344 66588
ONEWEB-0207             
1 48242U 21031AJ  22245.43721494  .00000028  00000+0  42256-4 0  9998
2 48242  87.9061 204.7242 0001899  89.8585 270.2763 13.14503772 66501
ONEWEB-0208             
1 48243U 21031AK  22245.41398140  .00000363  00000+0  94550-3 0  9990
2 48243  87.9050 204.7011 0001838  66.5480 293.5843 13.14504397 66515
ONEWEB-0200             
1 48244U 21031AL  22245.45415357 -.00000172  00000+0 -49854-3 0  9992
2 48244  87.9057 204.6846 0001810  65.5926 294.5392 13.14499518 66442
ONEWEB-0217             
1 48245U 21031AM  22245.39494633  .00000100  00000+0  23462-3 0  9996
2 48245  87.9056 204.7237 0001782  64.2349 295.8965 13.14504155 66387
ONEWEB-0211             
1 48767U 21045A   22245.53695588 -.00000150  00000+0 -43320-3 0  9990
2 48767  87.9145 174.5652 0002218  66.7421 293.3942 13.15550011 63628
ONEWEB-0223             
1 48768U 21045B   22245.32991973  .00000257  00000+0  64900-3 0  9998
2 48768  87.9153 174.5799 0002395  62.8948 297.2426 13.15546646 62456
ONEWEB-0230             
1 48769U 21045C   22245.53061640 -.00000242  00000+0 -67567-3 0  9999
2 48769  87.9195 174.5718 0002307  73.6908 286.4476 13.15552175 62744
ONEWEB-0237             
1 48770U 21045D   22245.82427793 -.00000036  00000+0 -12891-3 0  9999
2 48770  87.9177 174.3869 0002624  71.4092 288.7323 13.15545311 63632
ONEWEB-0235             
1 48771U 21045E   22245.56865559  .00000103  00000+0  24007-3 0  9992
2 48771  87.9195 174.4828 0003017  65.7009 294.4436 13.15550424 63584
ONEWEB-0242             
1 48772U 21045F   22245.56231229  .00000192  00000+0  47505-3 0  9990
2 48772  87.9146 174.5204 0002300  77.1333 283.0055 13.15551424 63639
ONEWEB-0241             
1 48773U 21045G   22245.32146617  .00000273  00000+0  69182-3 0  9996
2 48773  87.9136 174.5407 0002118  57.3588 302.7746 13.15547589 62387
ONEWEB-0243             
1 48774U 21045H   22245.88556133  .00000048  00000+0  93337-4 0  9996
2 48774  87.9199 174.4721 0002657  72.6550 287.4871 13.15551069 63615
ONEWEB-0222             
1 48775U 21045J   22245.49468696  .00000126  00000+0  30053-3 0  9992
2 48775  87.9191 174.5705 0002187  65.3515 294.7843 13.15547487 62471
ONEWEB-0244             
1 48776U 21045K   22245.83379723 -.00000077  00000+0 -23931-3 0  9997
2 48776  87.9134 174.4261 0002762  78.4993 281.6447 13.15544000 64205
ONEWEB-0247             
1 48777U 21045L   22245.51161452  .00000024  00000+0  29424-4 0  9995
2 48777  87.9147 174.4848 0002827  66.9772 293.1656 13.15549550 62483
ONEWEB-0245             
1 48778U 21045M   22245.88767800  .00000116  00000+0  27422-3 0  9992
2 48778  87.9204 174.4350 0001921  61.6009 298.5315 13.15549504 63633
ONEWEB-0229             
1 48779U 21045N   22245.88131780  .00000295  00000+0  74966-3 0  9998
2 48779  87.9198 174.4264 0002329  65.3294 294.8079 13.15551054 63662
ONEWEB-0228             
1 48780U 21045P   22245.82004663 -.00000036  00000+0 -13032-3 0  9995
2 48780  87.9179 174.4434 0002336  74.8772 285.2617 13.15550411 63574
ONEWEB-0232             
1 48781U 21045Q   22245.81371437  .00000025  00000+0  31548-4 0  9990
2 48781  87.9085 174.5450 0002139  75.6729 284.4638 13.15553762 63882
ONEWEB-0231             
1 48782U 21045R   22245.33626349  .00000337  00000+0  86231-3 0  9997
2 48782  87.9058 174.5529 0002496  69.5877 290.5521 13.15547580 62397
ONEWEB-0234             
1 48783U 21045S   22245.51373276  .00000014  00000+0  36761-5 0  9993
2 48783  87.9150 174.5291 0001660  65.3022 294.8281 13.15545448 62554
ONEWEB-0238             
1 48784U 21045T   22245.82957415 -.00000062  00000+0 -19936-3 0  9999
2 48784  87.9185 174.5069 0001863  71.1162 289.0170 13.15550474 63628
ONEWEB-0240             
1 48785U 21045U   22245.31935440  .00000220  00000+0  55093-3 0  9996
2 48785  87.9142 174.5570 0002269  56.3828 303.7519 13.15545252 62453
ONEWEB-0246             
1 48786U 21045V   22245.54329382 -.00000121  00000+0 -35550-3 0  9992
2 48786  87.9135 174.5160 0002485  70.5857 289.5542 13.15550276 62359
ONEWEB-0210             
1 48787U 21045W   22245.51795093 -.00000054  00000+0 -17693-3 0  9999
2 48787  87.9145 174.5266 0002983  77.9706 282.1758 13.15547198 62396
ONEWEB-0214             
1 48788U 21045X   22245.83272468 -.00000072  00000+0 -22581-3 0  9993
2 48788  87.9154 174.4948 0003021  82.7803 277.3671 13.15551265 63525
ONEWEB-0221             
1 48789U 21045Y   22245.53484313 -.00000194  00000+0 -54901-3 0  9991
2 48789  87.9145 174.5345 0002316  69.4081 290.7298 13.15549723 62455
ONEWEB-0213             
1 48790U 21045Z   22245.52217738 -.00000118  00000+0 -34687-3 0  9992
2 48790  87.9207 174.5596 0002488  70.6476 289.4923 13.15546824 63647
ONEWEB-0212             
1 48791U 21045AA  22245.50316033  .00000085  00000+0  19285-3 0  9997
2 48791  87.9203 174.5876 0001793  80.8573 279.2760 13.15547064 62501
ONEWEB-0227             
1 48792U 21045AB  22245.49681398  .00000146  00000+0  35398-3 0  9996
2 48792  87.9225 174.5968 0002119  68.4376 291.6980 13.15545352 63583
ONEWEB-0226             
1 48793U 21045AC  22245.56654986  .00000219  00000+0  54690-3 0  9995
2 48793  87.9198 174.5183 0002889  73.8959 286.2490 13.15547948 63559
ONEWEB-0224             
1 48794U 21045AD  22245.53273155 -.00000211  00000+0 -59365-3 0  9996
2 48794  87.9135 174.5060 0001584  70.0982 290.0319 13.15546999 62356
ONEWEB-0233             
1 48795U 21045AE  22245.32251801  .00000269  00000+0  68061-3 0  9992
2 48795  87.9204 174.5703 0002020  64.1765 295.9573 13.15549901 62337
ONEWEB-0190             
1 48796U 21045AF  22245.82850707 -.00000090  00000+0 -27436-3 0  9993
2 48796  87.9210 174.4630 0003235  60.9579 299.1875 13.15550495 63601
ONEWEB-0236             
1 48797U 21045AG  22245.54119086 -.00000051  00000+0 -16991-3 0  9992
2 48797  87.9141 174.5551 0002119  74.1636 285.9728 13.15545994 63450
ONEWEB-0248             
1 48798U 21045AH  22245.32567248  .00000177  00000+0  43593-3 0  9991
2 48798  87.9142 174.5706 0002521  48.7541 311.3806 13.15550699 62462
ONEWEB-0225             
1 48799U 21045AJ  22245.49893480  .00000170  00000+0  41844-3 0  9990
2 48799  87.9189 174.5835 0002570  61.4295 298.7093 13.15549722 62493
ONEWEB-0215             
1 48800U 21045AK  22245.54541162 -.00000061  00000+0 -19586-3 0  9995
2 48800  87.9138 174.5218 0002810  53.7250 306.4140 13.15550089 62372
ONEWEB-0216             
1 48801U 21045AL  22245.32779228  .00000015  00000+0  69627-5 0  9998
2 48801  87.9184 174.6227 0002308  82.5490 277.5903 13.15548193 62359
ONEWEB-0239             
1 48802U 21045AM  22245.33204228  .00000246  00000+0  62008-3 0  9993
2 48802  87.9189 174.6252 0002688  51.8342 308.3031 13.15549651 62398
ONEWEB-0249             
1 48967U 21060A   22245.22250550  .00000131  00000+0  30814-3 0  9992
2 48967  87.9127 144.3480 0002006  76.1556 283.9798 13.16596077 57500
ONEWEB-0250             
1 48968U 21060B   22245.83508541  .00000147  00000+0  35189-3 0  9993
2 48968  87.9131 144.2305 0002079  64.7853 295.3493 13.16596066 58850
ONEWEB-0252             
1 48970U 21060D   22245.78671415  .00000153  00000+0  36602-3 0  9999
2 48970  87.9140 144.2182 0002291  75.2341 284.9044 13.16592561 58910
ONEWEB-0253             
1 48971U 21060E   22245.47350682  .00000072  00000+0  15467-3 0  9992
2 48971  87.9116 144.3053 0002412  67.8186 292.3200 13.16593308 58794
ONEWEB-0254             
1 48972U 21060F   22245.48041851  .00000073  00000+0  15759-3 0  9994
2 48972  87.9140 144.2658 0002378  68.9371 291.2014 13.16596739 57512
ONEWEB-0255             
1 48973U 21060G   22245.44357739 -.00000066  00000+0 -20727-3 0  9991
2 48973  87.9130 144.3531 0001998  73.4653 286.6698 13.16592720 57583
ONEWEB-0256             
1 48974U 21060H   22245.77290373  .00000045  00000+0  84234-4 0  9997
2 48974  87.9115 144.2391 0002085  87.6233 272.5137 13.16594859 58880
ONEWEB-0257             
1 48975U 21060J   22245.42516508  .00000042  00000+0  77522-4 0  9990
2 48975  87.9122 144.3488 0002282  76.7590 283.3796 13.16595933 57504
ONEWEB-0258             
1 48976U 21060K   22245.42746899  .00001289  00000+0  33390-2 0  9996
2 48976  87.9131 144.3510 0002198  71.4537 288.6833 13.16589286 57515
ONEWEB-0259             
1 48977U 21060L   22245.42284710  .00000052  00000+0  10261-3 0  9996
2 48977  87.9134 144.3294 0001985  61.6444 298.4887 13.16591269 57544
ONEWEB-0260             
1 48978U 21060M   22245.41592949  .00000016  00000+0  90345-5 0  9995
2 48978  87.9119 144.3247 0002688  90.3837 269.7602 13.16597098 57522
ONEWEB-0261             
1 48979U 21060N   22245.45739609 -.00000069  00000+0 -21411-3 0  9992
2 48979  87.9122 144.3235 0002359  73.6888 286.4502 13.16595151 57588
ONEWEB-0262             
1 48980U 21060P   22245.43898083 -.00000022  00000+0 -90034-4 0  9991
2 48980  87.9144 144.2858 0002188  55.4183 304.7154 13.16595187 57542
ONEWEB-0263             
1 48981U 21060Q   22245.47121610  .00000099  00000+0  22509-3 0  9994
2 48981  87.9145 144.2790 0002523  61.7057 298.4329 13.16596998 57513
ONEWEB-0264             
1 48982U 21060R   22245.43090331  .00000013  00000+0  15296-5 0  9999
2 48982  87.9156 144.2502 0002115  73.3920 286.7443 13.16598678 57516
ONEWEB-0266             
1 48984U 21060T   22245.68076792 -.00000005  00000+0 -47148-4 0  9996
2 48984  87.9138 144.2492 0001822  74.4201 285.7130 13.16591401 58839
ONEWEB-0267             
1 48985U 21060U   22245.46431924 -.00000060  00000+0 -19139-3 0  9994
2 48985  87.9139 144.2891 0002550  73.5324 286.6087 13.16594829 57511
ONEWEB-0268             
1 48986U 21060V   22245.43206582 -.00000032  00000+0 -11716-3 0  9994
2 48986  87.9143 144.3003 0002074  78.8594 281.2770 13.16597715 57776
